[
    {
        "OBJECT_NAME": "BEIDOU-2 IGSO-5",
        "OBJECT_ID": "2011-073A",
        "EPOCH": "2026-06-18T16:01:15.839616",
        "MEAN_MOTION": 1.00272695,
        "ECCENTRICITY": 0.01139717,
        "INCLINATION": 47.6748,
        "RA_OF_ASC_NODE": 271.5267,
        "ARG_OF_PERICENTER": 221.7702,
        "MEAN_ANOMALY": 105.6518,
        "EPHEMERIS_TYPE": 0,
        "CLASSIFICATION_TYPE": "U",
        "NORAD_CAT_ID": 37948,
        "ELEMENT_SET_NO": 999,
        "REV_AT_EPOCH": 5314,
        "BSTAR": 0,
        "MEAN_MOTION_DOT": -1.92e-06,
        "MEAN_MOTION_DDOT": 0
    },
    {
        "OBJECT_NAME": "BEIDOU-2 G5",
        "OBJECT_ID": "2012-008A",
        "EPOCH": "2026-06-21T00:57:21.636000",
        "MEAN_MOTION": 1.00273091,
        "ECCENTRICITY": 0.0009015,
        "INCLINATION": 3.5845,
        "RA_OF_ASC_NODE": 69.6825,
        "ARG_OF_PERICENTER": 273.5349,
        "MEAN_ANOMALY": 359.0277,
        "EPHEMERIS_TYPE": 0,
        "CLASSIFICATION_TYPE": "U",
        "NORAD_CAT_ID": 38091,
        "ELEMENT_SET_NO": 999,
        "REV_AT_EPOCH": 5240,
        "BSTAR": 0,
        "MEAN_MOTION_DOT": 5.3e-07,
        "MEAN_MOTION_DDOT": 0
    },
    {
        "OBJECT_NAME": "BEIDOU-2 M3",
        "OBJECT_ID": "2012-018A",
        "EPOCH": "2026-06-19T20:57:49.192992",
        "MEAN_MOTION": 1.86229605,
        "ECCENTRICITY": 0.0020163,
        "INCLINATION": 55.7552,
        "RA_OF_ASC_NODE": 304.7847,
        "ARG_OF_PERICENTER": 273.6567,
        "MEAN_ANOMALY": 86.1052,
        "EPHEMERIS_TYPE": 0,
        "CLASSIFICATION_TYPE": "U",
        "NORAD_CAT_ID": 38250,
        "ELEMENT_SET_NO": 999,
        "REV_AT_EPOCH": 9599,
        "BSTAR": 0,
        "MEAN_MOTION_DOT": -8.7e-07,
        "MEAN_MOTION_DDOT": 0
    },
    {
        "OBJECT_NAME": "BEIDOU-2 M4",
        "OBJECT_ID": "2012-018B",
        "EPOCH": "2026-06-21T10:00:00.201600",
        "MEAN_MOTION": 1.8622923,
        "ECCENTRICITY": 0.0011367,
        "INCLINATION": 55.6541,
        "RA_OF_ASC_NODE": 303.9461,
        "ARG_OF_PERICENTER": 274.9349,
        "MEAN_ANOMALY": 84.9285,
        "EPHEMERIS_TYPE": 0,
        "CLASSIFICATION_TYPE": "U",
        "NORAD_CAT_ID": 38251,
        "ELEMENT_SET_NO": 999,
        "REV_AT_EPOCH": 9602,
        "BSTAR": 0,
        "MEAN_MOTION_DOT": -9.8e-07,
        "MEAN_MOTION_DDOT": 0
    },
    {
        "OBJECT_NAME": "BEIDOU-2 M6",
        "OBJECT_ID": "2012-050B",
        "EPOCH": "2026-06-20T01:15:33.302592",
        "MEAN_MOTION": 1.86230944,
        "ECCENTRICITY": 0.0013616,
        "INCLINATION": 56.5467,
        "RA_OF_ASC_NODE": 62.7995,
        "ARG_OF_PERICENTER": 357.8468,
        "MEAN_ANOMALY": 2.1878,
        "EPHEMERIS_TYPE": 0,
        "CLASSIFICATION_TYPE": "U",
        "NORAD_CAT_ID": 38775,
        "ELEMENT_SET_NO": 999,
        "REV_AT_EPOCH": 9336,
        "BSTAR": 0,
        "MEAN_MOTION_DOT": -6.9e-07,
        "MEAN_MOTION_DDOT": 0
    },
    {
        "OBJECT_NAME": "BEIDOU-2 G6",
        "OBJECT_ID": "2012-059A",
        "EPOCH": "2026-06-19T17:02:03.598368",
        "MEAN_MOTION": 1.002715,
        "ECCENTRICITY": 0.00096327,
        "INCLINATION": 4.4288,
        "RA_OF_ASC_NODE": 73.4979,
        "ARG_OF_PERICENTER": 324.3686,
        "MEAN_ANOMALY": 209.6174,
        "EPHEMERIS_TYPE": 0,
        "CLASSIFICATION_TYPE": "U",
        "NORAD_CAT_ID": 38953,
        "ELEMENT_SET_NO": 999,
        "REV_AT_EPOCH": 4993,
        "BSTAR": 0,
        "MEAN_MOTION_DOT": -1.83e-06,
        "MEAN_MOTION_DDOT": 0
    },
    {
        "OBJECT_NAME": "BEIDOU-3S IGSO-1S",
        "OBJECT_ID": "2015-019A",
        "EPOCH": "2026-06-19T23:53:37.596192",
        "MEAN_MOTION": 1.00249609,
        "ECCENTRICITY": 0.00388634,
        "INCLINATION": 49.1899,
        "RA_OF_ASC_NODE": 295.427,
        "ARG_OF_PERICENTER": 191.075,
        "MEAN_ANOMALY": 231.2891,
        "EPHEMERIS_TYPE": 0,
        "CLASSIFICATION_TYPE": "U",
        "NORAD_CAT_ID": 40549,
        "ELEMENT_SET_NO": 999,
        "REV_AT_EPOCH": 4110,
        "BSTAR": 0,
        "MEAN_MOTION_DOT": -1.76e-06,
        "MEAN_MOTION_DDOT": 0
    },
    {
        "OBJECT_NAME": "BEIDOU-3S M2S",
        "OBJECT_ID": "2015-037A",
        "EPOCH": "2026-06-19T11:18:28.045152",
        "MEAN_MOTION": 1.86231851,
        "ECCENTRICITY": 0.00084322,
        "INCLINATION": 54.869,
        "RA_OF_ASC_NODE": 301.9679,
        "ARG_OF_PERICENTER": 258.8961,
        "MEAN_ANOMALY": 101.0039,
        "EPHEMERIS_TYPE": 0,
        "CLASSIFICATION_TYPE": "U",
        "NORAD_CAT_ID": 40748,
        "ELEMENT_SET_NO": 999,
        "REV_AT_EPOCH": 7416,
        "BSTAR": 0,
        "MEAN_MOTION_DOT": -8.4e-07,
        "MEAN_MOTION_DDOT": 0
    },
    {
        "OBJECT_NAME": "BEIDOU-3S M1S",
        "OBJECT_ID": "2015-037B",
        "EPOCH": "2026-06-16T10:58:00.731424",
        "MEAN_MOTION": 1.86254753,
        "ECCENTRICITY": 0.00034483,
        "INCLINATION": 54.8681,
        "RA_OF_ASC_NODE": 302.059,
        "ARG_OF_PERICENTER": 61.6955,
        "MEAN_ANOMALY": 298.3263,
        "EPHEMERIS_TYPE": 0,
        "CLASSIFICATION_TYPE": "U",
        "NORAD_CAT_ID": 40749,
        "ELEMENT_SET_NO": 999,
        "REV_AT_EPOCH": 7411,
        "BSTAR": 0,
        "MEAN_MOTION_DOT": -7e-07,
        "MEAN_MOTION_DDOT": 0
    },
    {
        "OBJECT_NAME": "BEIDOU-3S IGSO-2S",
        "OBJECT_ID": "2015-053A",
        "EPOCH": "2026-06-19T17:02:10.485312",
        "MEAN_MOTION": 1.00258902,
        "ECCENTRICITY": 0.00655838,
        "INCLINATION": 49.2167,
        "RA_OF_ASC_NODE": 258.7515,
        "ARG_OF_PERICENTER": 192.2245,
        "MEAN_ANOMALY": 167.5336,
        "EPHEMERIS_TYPE": 0,
        "CLASSIFICATION_TYPE": "U",
        "NORAD_CAT_ID": 40938,
        "ELEMENT_SET_NO": 999,
        "REV_AT_EPOCH": 3937,
        "BSTAR": 0,
        "MEAN_MOTION_DOT": -1.43e-06,
        "MEAN_MOTION_DDOT": 0
    },
    {
        "OBJECT_NAME": "BEIDOU-2 IGSO-6",
        "OBJECT_ID": "2016-021A",
        "EPOCH": "2026-06-21T02:16:51.754080",
        "MEAN_MOTION": 1.00259258,
        "ECCENTRICITY": 0.0057439,
        "INCLINATION": 60.2315,
        "RA_OF_ASC_NODE": 37.9988,
        "ARG_OF_PERICENTER": 231.3221,
        "MEAN_ANOMALY": 126.8353,
        "EPHEMERIS_TYPE": 0,
        "CLASSIFICATION_TYPE": "U",
        "NORAD_CAT_ID": 41434,
        "ELEMENT_SET_NO": 999,
        "REV_AT_EPOCH": 3751,
        "BSTAR": 0,
        "MEAN_MOTION_DOT": -1.59e-06,
        "MEAN_MOTION_DDOT": 0
    }
]